NORAD_CAT_ID,OBJECT_NAME,OBJECT_TYPE,EPOCH,MEAN_MOTION,ECCENTRICITY,INCLINATION,RA_OF_ASC_NODE,ARG_OF_PERICENTER,MEAN_ANOMALY,BSTAR,MEAN_MOTION_DOT,MEAN_MOTION_DDOT,TLE_LINE0,TLE_LINE1,TLE_LINE2,SEMIMAJOR_AXIS,PERIOD,APOGEE,PERIGEE,DECAYED
52639.0,STARLINK-3968,PAYLOAD,2023-02-21 18:13:11,15.08847216,0.0001285,53.2144,210.7712,87.4776,272.6363,0.00018597,2.674e-05,0.0,0 STARLINK-3968,1 52639U 22052AT  23052.75915858  .00002674  00000-0  18597-3 0  9998,2 52639  53.2144 210.7712 0001285  87.4776 272.6363 15.08847216 44077,6917.858,95.437,540.612,538.834,0.0
52639.0,STARLINK-3968,PAYLOAD,2023-02-22 10:07:02,15.0884228,0.0001517,53.214,207.7989,74.8245,285.2915,8.9954e-05,1.144e-05,0.0,0 STARLINK-3968,1 52639U 22052AT  23053.42156098  .00001144  00000-0  89954-4 0  9993,2 52639  53.2140 207.7989 0001517  74.8245 285.2915 15.08842280 43746,6917.873,95.437,540.788,538.689,0.0
52639.0,STARLINK-3968,PAYLOAD,2023-02-22 11:42:26,15.08837442,0.0001268,53.2138,207.4998,85.2099,274.9038,7.611e-05,9.24e-06,0.0,0 STARLINK-3968,1 52639U 22052AT  23053.48780279  .00000924  00000-0  76110-4 0  9998,2 52639  53.2138 207.4998 0001268  85.2099 274.9038 15.08837442 44180,6917.888,95.438,540.63,538.876,0.0
52639.0,STARLINK-3968,PAYLOAD,2023-02-22 16:28:35,15.08842215,0.0001146,53.2147,206.6074,92.7659,267.3464,0.0001429,1.987e-05,0.0,0 STARLINK-3968,1 52639U 22052AT  23053.68652069  .00001987  00000-0  14290-3 0  9995,2 52639  53.2147 206.6074 0001146  92.7659 267.3464 15.08842215 44213,6917.874,95.437,540.531,538.946,0.0
52639.0,STARLINK-3968,PAYLOAD,2023-02-23 09:57:50,15.08836195,0.0001386,53.2136,203.3355,100.3791,259.7357,5.6244e-05,6.07e-06,0.0,0 STARLINK-3968,1 52639U 22052AT  23054.41516396  .00000607  00000-0  56244-4 0  9993,2 52639  53.2136 203.3355 0001386 100.3791 259.7357 15.08836195 43895,6917.892,95.438,540.716,538.798,0.0
52639.0,STARLINK-3968,PAYLOAD,2023-02-23 11:33:13,15.08837585,0.000125,53.2137,203.0381,96.2779,263.8355,3.1116e-06,-2.38e-06,0.0,0 STARLINK-3968,1 52639U 22052AT  23054.48140429 -.00000238  00000-0  31116-5 0  9993,2 52639  53.2137 203.0381 0001250  96.2779 263.8355 15.08837585 44339,6917.888,95.438,540.618,538.888,0.0
52639.0,STARLINK-3968,PAYLOAD,2023-02-23 16:19:22,15.08850528,0.0001448,53.2138,202.1467,102.8578,257.2576,-0.00022611,-3.886e-05,0.0,0 STARLINK-3968,1 52639U 22052AT  23054.68011676 -.00003886  00000-0 -22611-3 0  9997,2 52639  53.2138 202.1467 0001448 102.8578 257.2576 15.08850528 43934,6917.848,95.437,540.715,538.712,0.0
52639.0,STARLINK-3968,PAYLOAD,2023-02-24 09:48:37,15.08838071,0.0001248,53.214,198.8757,95.0724,265.041,0.00010525,1.387e-05,0.0,0 STARLINK-3968,1 52639U 22052AT  23055.40876474  .00001387  00000-0  10525-3 0  9996,2 52639  53.2140 198.8757 0001248  95.0724 265.0410 15.08838071 44040,6917.886,95.438,540.615,538.888,0.0
52639.0,STARLINK-3968,PAYLOAD,2023-02-24 19:20:55,15.08843704,0.0001186,53.2144,197.0922,80.3586,279.754,0.00014391,2.003e-05,0.0,0 STARLINK-3968,1 52639U 22052AT  23055.80620292  .00002003  00000-0  14391-3 0  9996,2 52639  53.2144 197.0922 0001186  80.3586 279.7540 15.08843704 44532,6917.869,95.437,540.555,538.914,0.0
52639.0,STARLINK-3968,PAYLOAD,2023-02-25 09:39:25,15.08828714,0.0001052,53.2139,194.4147,88.6088,271.5025,2.3486e-05,8.6e-07,0.0,0 STARLINK-3968,1 52639U 22052AT  23056.40237281  .00000086  00000-0  23486-4 0  9990,2 52639  53.2139 194.4147 0001052  88.6088 271.5025 15.08828714 44190,6917.915,95.438,540.508,539.052,0.0
52639.0,STARLINK-3968,PAYLOAD,2023-02-25 12:50:11,15.08832555,0.0001336,53.214,193.818,106.1138,254.0001,8.2185e-05,1.02e-05,0.0,0 STARLINK-3968,1 52639U 22052AT  23056.53485087  .00001020  00000-0  82185-4 0  9993,2 52639  53.2140 193.8180 0001336 106.1138 254.0001 15.08832555 44647,6917.903,95.438,540.692,538.844,0.0
52639.0,STARLINK-3968,PAYLOAD,2023-02-25 19:11:43,15.08841102,0.0001176,53.2145,192.6312,85.2406,274.8721,0.0001427,1.984e-05,0.0,0 STARLINK-3968,1 52639U 22052AT  23056.79980790  .00001984  00000-0  14270-3 0  9990,2 52639  53.2145 192.6312 0001176  85.2406 274.8721 15.08841102 44257,6917.877,95.437,540.556,538.928,0.0
52639.0,STARLINK-3968,PAYLOAD,2023-02-26 09:30:11,15.08843963,0.0001137,53.2145,189.9546,79.9062,280.2058,0.00012199,1.654e-05,0.0,0 STARLINK-3968,1 52639U 22052AT  23057.39596726  .00001654  00000-0  12199-3 0  9991,2 52639  53.2145 189.9546 0001137  79.9062 280.2058 15.08843963 44778,6917.868,95.437,540.52,538.947,0.0
52639.0,STARLINK-3968,PAYLOAD,2023-02-26 19:02:29,15.08860872,0.0001285,53.2149,188.1705,86.5968,273.5171,0.00040136,6.109e-05,0.0,0 STARLINK-3968,1 52639U 22052AT  23057.79339836  .00006109  00000-0  40136-3 0  9994,2 52639  53.2149 188.1705 0001285  86.5968 273.5171 15.08860872 44402,6917.817,95.436,540.571,538.793,0.0
52639.0,STARLINK-3968,PAYLOAD,2023-02-27 01:24:02,15.08849429,0.0001483,53.2151,186.9809,67.7664,292.3486,0.00021477,3.133e-05,0.0,0 STARLINK-3968,1 52639U 22052AT  23058.05836266  .00003133  00000-0  21477-3 0  9994,2 52639  53.2151 186.9809 0001483  67.7664 292.3486 15.08849429 44447,6917.852,95.437,540.742,538.691,0.0
52639.0,STARLINK-3968,PAYLOAD,2023-02-27 10:56:21,15.08836257,0.0001415,53.2137,185.1974,69.9656,290.1488,-6.1262e-05,-1.263e-05,0.0,0 STARLINK-3968,1 52639U 22052AT  23058.45580887 -.00001263  00000-0 -61262-4 0  9994,2 52639  53.2137 185.1974 0001415  69.9656 290.1488 15.08836257 44505,6917.892,95.438,540.736,538.778,0.0
52639.0,STARLINK-3968,PAYLOAD,2023-02-27 18:53:16,15.0887188,0.0001144,53.215,183.7076,79.1267,280.9854,0.00075992,0.00011837,0.0,0 STARLINK-3968,1 52639U 22052AT  23058.78699464  .00011837  00000-0  75992-3 0  9992,2 52639  53.2150 183.7076 0001144  79.1267 280.9854 15.08871880 44557,6917.783,95.436,540.439,538.857,0.0
52639.0,STARLINK-3968,PAYLOAD,2023-02-28 01:14:49,15.08839064,0.000141,53.2148,182.5202,83.9751,276.1402,8.5924e-07,-2.74e-06,0.0,0 STARLINK-3968,1 52639U 22052AT  23059.05196361 -.00000274  00000-0  85924-6 0  9994,2 52639  53.2148 182.5202 0001410  83.9751 276.1402 15.08839064 44597,6917.883,95.438,540.724,538.773,0.0
52639.0,STARLINK-3968,PAYLOAD,2023-02-28 12:22:31,15.08856259,0.0001027,53.2134,180.4397,81.0551,279.0557,0.00083326,0.00013004,0.0,0 STARLINK-3968,1 52639U 22052AT  23059.51563995  .00013004  00000-0  83326-3 0  9991,2 52639  53.2134 180.4397 0001027  81.0551 279.0557 15.08856259 44661,6917.831,95.437,540.406,538.985,0.0
52639.0,STARLINK-3968,PAYLOAD,2023-03-01 01:05:36,15.08841821,5.18e-05,53.2142,178.0611,107.9058,252.1991,0.00059343,9.17e-05,0.0,0 STARLINK-3968,1 52639U 22052AT  23060.04556207  .00009170  00000-0  59343-3 0  9990,2 52639  53.2142 178.0611 0000518 107.9058 252.1991 15.08841821 44748,6917.875,95.437,540.098,539.381,0.0
52639.0,STARLINK-3968,PAYLOAD,2023-03-01 07:27:10,15.08805164,0.0001373,53.2128,176.8725,96.4061,263.7088,-0.00058742,-9.616e-05,0.0,0 STARLINK-3968,1 52639U 22052AT  23060.31053403 -.00009616  00000-0 -58742-3 0  9999,2 52639  53.2128 176.8725 0001373  96.4061 263.7088 15.08805164 44789,6917.987,95.44,540.802,538.902,0.0
52639.0,STARLINK-3968,PAYLOAD,2023-03-01 13:48:43,15.08787243,0.0001414,53.2133,175.6818,103.3251,256.7899,0.0012474,0.00019591,0.0,0 STARLINK-3968,1 52639U 22052AT  23060.57550549  .00019591  00000-0  12474-2 0  9992,2 52639  53.2133 175.6818 0001414 103.3251 256.7899 15.08787243 45252,6918.042,95.441,540.885,538.928,0.0
52639.0,STARLINK-3968,PAYLOAD,2023-03-02 00:56:26,15.088276,0.000138,53.2143,173.601,99.7499,260.3649,0.0019668,0.00031142,0.0,0 STARLINK-3968,1 52639U 22052AT  23061.03919250  .00031142  00000-0  19668-2 0  9990,2 52639  53.2143 173.6010 0001380  99.7499 260.3649 15.08827600 44894,6917.918,95.438,540.738,538.829,0.0
52639.0,STARLINK-3968,PAYLOAD,2023-03-02 13:39:30,15.08877864,0.0001268,53.2142,171.2215,98.2928,261.8208,0.0025841,0.00041121,0.0,0 STARLINK-3968,1 52639U 22052AT  23061.56910558  .00041121  00000-0  25841-2 0  9998,2 52639  53.2142 171.2215 0001268  98.2928 261.8208 15.08877864 44973,6917.765,95.435,540.507,538.752,0.0
52639.0,STARLINK-3968,PAYLOAD,2023-03-03 07:08:44,15.08898665,0.0001466,53.2146,167.9512,95.8511,264.2648,0.0030209,0.00048196,0.0,0 STARLINK-3968,1 52639U 22052AT  23062.29773668  .00048196  00000-0  30209-2 0  9991,2 52639  53.2146 167.9512 0001466  95.8511 264.2648 15.08898665 45080,6917.701,95.434,540.58,538.552,0.0
52639.0,STARLINK-3968,PAYLOAD,2023-03-03 10:19:30,15.08889477,0.000117,53.2151,167.3558,72.1998,287.9122,0.0021924,0.00034824,0.0,0 STARLINK-3968,1 52639U 22052AT  23062.43021492  .00034824  00000-0  21924-2 0  9995,2 52639  53.2151 167.3558 0001170  72.1998 287.9122 15.08889477 45102,6917.729,95.434,540.404,538.785,0.0
52639.0,STARLINK-3968,PAYLOAD,2023-03-03 11:54:53,15.08901415,0.0001057,53.215,167.0586,87.0919,273.0194,0.0029062,0.00046347,0.0,0 STARLINK-3968,1 52639U 22052AT  23062.49645223  .00046347  00000-0  29062-2 0  9999,2 52639  53.2150 167.0586 0001057  87.0919 273.0194 15.08901415 45114,6917.693,95.434,540.289,538.826,0.0
52639.0,STARLINK-3968,PAYLOAD,2023-03-04 06:59:30,15.08882209,0.0001365,53.215,163.4896,123.7975,236.3147,0.0026191,0.0004169,0.0,0 STARLINK-3968,1 52639U 22052AT  23063.29132796  .00041690  00000-0  26191-2 0  9990,2 52639  53.2150 163.4896 0001365 123.7975 236.3147 15.08882209 45232,6917.751,95.435,540.561,538.672,0.0
52639.0,STARLINK-3968,PAYLOAD,2023-03-04 11:45:40,15.08842273,0.0001206,53.2151,162.5981,114.6834,245.4284,0.0017825,0.00028196,0.0,0 STARLINK-3968,1 52639U 22052AT  23063.49004930  .00028196  00000-0  17825-2 0  9990,2 52639  53.2151 162.5981 0001206 114.6834 245.4284 15.08842273 45695,6917.873,95.437,540.573,538.904,0.0
52639.0,STARLINK-3968,PAYLOAD,2023-03-04 16:31:49,15.08854713,0.0001096,53.2156,161.7048,110.5986,249.5124,0.0010633,0.00016682,0.0,0 STARLINK-3968,1 52639U 22052AT  23063.68876782  .00016682  00000-0  10633-2 0  9990,2 52639  53.2156 161.7048 0001096 110.5986 249.5124 15.08854713 45291,6917.835,95.437,540.459,538.942,0.0
